[{"OBJECT_NAME":"STARLINK-30236","OBJECT_ID":"2023-096L","EPOCH":"2025-11-27T07:00:13.397472","MEAN_MOTION":15.02531045,"ECCENTRICITY":0.00012762,"INCLINATION":43.003,"RA_OF_ASC_NODE":59.5978,"ARG_OF_PERICENTER":269.5727,"MEAN_ANOMALY":90.4969,"EPHEMERIS_TYPE":0,"CLASSIFICATION_TYPE":"U","NORAD_CAT_ID":57300,"ELEMENT_SET_NO":999,"REV_AT_EPOCH":13225,"BSTAR":-1.394538e-5,"MEAN_MOTION_DOT":-3.92e-6,"MEAN_MOTION_DDOT":0},{"OBJECT_NAME":"STARLINK-30201","OBJECT_ID":"2023-096M","EPOCH":"2025-11-27T06:55:25.670784","MEAN_MOTION":15.02533673,"ECCENTRICITY":0.00012563,"INCLINATION":43.0032,"RA_OF_ASC_NODE":59.578,"ARG_OF_PERICENTER":279.7171,"MEAN_ANOMALY":80.353,"EPHEMERIS_TYPE":0,"CLASSIFICATION_TYPE":"U","NORAD_CAT_ID":57301,"ELEMENT_SET_NO":999,"REV_AT_EPOCH":13131,"BSTAR":6.3942129e-5,"MEAN_MOTION_DOT":6.6e-6,"MEAN_MOTION_DDOT":0},{"OBJECT_NAME":"STARLINK-30233","OBJECT_ID":"2023-096N","EPOCH":"2025-11-27T06:50:38.022720","MEAN_MOTION":15.02516047,"ECCENTRICITY":0.00019825,"INCLINATION":43.0041,"RA_OF_ASC_NODE":59.5316,"ARG_OF_PERICENTER":274.3519,"MEAN_ANOMALY":85.7097,"EPHEMERIS_TYPE":0,"CLASSIFICATION_TYPE":"U","NORAD_CAT_ID":57302,"ELEMENT_SET_NO":999,"REV_AT_EPOCH":13131,"BSTAR":-0.00010228437,"MEAN_MOTION_DOT":-1.584e-5,"MEAN_MOTION_DDOT":0},{"OBJECT_NAME":"STARLINK-30232","OBJECT_ID":"2023-096P","EPOCH":"2025-11-27T08:00:03.000384","MEAN_MOTION":15.38113413,"ECCENTRICITY":0.00279438,"INCLINATION":42.9936,"RA_OF_ASC_NODE":29.5804,"ARG_OF_PERICENTER":38.4863,"MEAN_ANOMALY":189.6106,"EPHEMERIS_TYPE":0,"CLASSIFICATION_TYPE":"U","NORAD_CAT_ID":57303,"ELEMENT_SET_NO":999,"REV_AT_EPOCH":588,"BSTAR":0.0030081079,"MEAN_MOTION_DOT":0.00118418,"MEAN_MOTION_DDOT":0},{"OBJECT_NAME":"STARLINK-30177","OBJECT_ID":"2023-096R","EPOCH":"2025-11-27T08:00:03.000384","MEAN_MOTION":15.40416007,"ECCENTRICITY":0.00284996,"INCLINATION":42.9916,"RA_OF_ASC_NODE":28.1132,"ARG_OF_PERICENTER":40.672,"MEAN_ANOMALY":75.2402,"EPHEMERIS_TYPE":0,"CLASSIFICATION_TYPE":"U","NORAD_CAT_ID":57305,"ELEMENT_SET_NO":999,"REV_AT_EPOCH":593,"BSTAR":0.0031238378,"MEAN_MOTION_DOT":0.00133041,"MEAN_MOTION_DDOT":0},{"OBJECT_NAME":"STARLINK-30200","OBJECT_ID":"2023-096S","EPOCH":"2025-11-27T08:00:03.000384","MEAN_MOTION":15.41025503,"ECCENTRICITY":0.00278909,"INCLINATION":42.9862,"RA_OF_ASC_NODE":24.0049,"ARG_OF_PERICENTER":45.7196,"MEAN_ANOMALY":344.8643,"EPHEMERIS_TYPE":0,"CLASSIFICATION_TYPE":"U","NORAD_CAT_ID":57306,"ELEMENT_SET_NO":999,"REV_AT_EPOCH":578,"BSTAR":0.0031768066,"MEAN_MOTION_DOT":0.00138091,"MEAN_MOTION_DDOT":0},{"OBJECT_NAME":"STARLINK-30209","OBJECT_ID":"2023-096T","EPOCH":"2025-11-27T05:18:09.550368","MEAN_MOTION":15.3731378,"ECCENTRICITY":0.00281443,"INCLINATION":42.9872,"RA_OF_ASC_NODE":29.2249,"ARG_OF_PERICENTER":35.9313,"MEAN_ANOMALY":324.3428,"EPHEMERIS_TYPE":0,"CLASSIFICATION_TYPE":"U","NORAD_CAT_ID":57307,"ELEMENT_SET_NO":999,"REV_AT_EPOCH":13166,"BSTAR":0.00060297552,"MEAN_MOTION_DOT":0.00022604,"MEAN_MOTION_DDOT":0},{"OBJECT_NAME":"STARLINK-30163","OBJECT_ID":"2023-096V","EPOCH":"2025-11-27T06:00:02.000160","MEAN_MOTION":15.84774495,"ECCENTRICITY":0.00276576,"INCLINATION":42.9811,"RA_OF_ASC_NODE":353.3057,"ARG_OF_PERICENTER":84.9429,"MEAN_ANOMALY":244.1528,"EPHEMERIS_TYPE":0,"CLASSIFICATION_TYPE":"U","NORAD_CAT_ID":57309,"ELEMENT_SET_NO":999,"REV_AT_EPOCH":599,"BSTAR":0.001198973,"MEAN_MOTION_DOT":0.00305873,"MEAN_MOTION_DDOT":0},{"OBJECT_NAME":"STARLINK-30184","OBJECT_ID":"2023-096W","EPOCH":"2025-11-27T05:01:17.206752","MEAN_MOTION":15.02553098,"ECCENTRICITY":6.341e-5,"INCLINATION":43.0045,"RA_OF_ASC_NODE":33.9815,"ARG_OF_PERICENTER":300.3794,"MEAN_ANOMALY":59.6986,"EPHEMERIS_TYPE":0,"CLASSIFICATION_TYPE":"U","NORAD_CAT_ID":57310,"ELEMENT_SET_NO":999,"REV_AT_EPOCH":13160,"BSTAR":-0.00025353913,"MEAN_MOTION_DOT":-3.628e-5,"MEAN_MOTION_DDOT":0},{"OBJECT_NAME":"STARLINK-30175","OBJECT_ID":"2023-096X","EPOCH":"2025-11-27T06:00:02.000160","MEAN_MOTION":15.38701298,"ECCENTRICITY":0.00287791,"INCLINATION":42.9868,"RA_OF_ASC_NODE":29.5461,"ARG_OF_PERICENTER":35.639,"MEAN_ANOMALY":288.2767,"EPHEMERIS_TYPE":0,"CLASSIFICATION_TYPE":"U","NORAD_CAT_ID":57311,"ELEMENT_SET_NO":999,"REV_AT_EPOCH":586,"BSTAR":0.0032781998,"MEAN_MOTION_DOT":0.0013193,"MEAN_MOTION_DDOT":0},{"OBJECT_NAME":"STARLINK-6290","OBJECT_ID":"2023-099A","EPOCH":"2025-11-26T09:20:47.625504","MEAN_MOTION":15.02546069,"ECCENTRICITY":0.00014124,"INCLINATION":43.0028,"RA_OF_ASC_NODE":90.6159,"ARG_OF_PERICENTER":268.6025,"MEAN_ANOMALY":91.4656,"EPHEMERIS_TYPE":0,"CLASSIFICATION_TYPE":"U","NORAD_CAT_ID":57328,"ELEMENT_SET_NO":999,"REV_AT_EPOCH":13148,"BSTAR":-4.3329566e-5,"MEAN_MOTION_DOT":-7.89e-6,"MEAN_MOTION_DDOT":0},{"OBJECT_NAME":"STARLINK-6138","OBJECT_ID":"2023-099B","EPOCH":"2025-11-26T15:29:19.711392","MEAN_MOTION":15.02540245,"ECCENTRICITY":0.0001257,"INCLINATION":43.0032,"RA_OF_ASC_NODE":89.09,"ARG_OF_PERICENTER":276.136,"MEAN_ANOMALY":83.9339,"EPHEMERIS_TYPE":0,"CLASSIFICATION_TYPE":"U","NORAD_CAT_ID":57329,"ELEMENT_SET_NO":999,"REV_AT_EPOCH":13061,"BSTAR":4.9565044e-5,"MEAN_MOTION_DOT":4.66e-6,"MEAN_MOTION_DDOT":0},{"OBJECT_NAME":"STARLINK-6212","OBJECT_ID":"2023-099C","EPOCH":"2025-11-26T09:15:59.615424","MEAN_MOTION":15.02537628,"ECCENTRICITY":0.00014182,"INCLINATION":43.0033,"RA_OF_ASC_NODE":90.5912,"ARG_OF_PERICENTER":271.5816,"MEAN_ANOMALY":88.4864,"EPHEMERIS_TYPE":0,"CLASSIFICATION_TYPE":"U","NORAD_CAT_ID":57330,"ELEMENT_SET_NO":999,"REV_AT_EPOCH":13057,"BSTAR":9.4427668e-5,"MEAN_MOTION_DOT":1.072e-5,"MEAN_MOTION_DDOT":0},{"OBJECT_NAME":"STARLINK-6234","OBJECT_ID":"2023-099D","EPOCH":"2025-11-26T09:14:23.796960","MEAN_MOTION":15.02533619,"ECCENTRICITY":0.00013151,"INCLINATION":43.0037,"RA_OF_ASC_NODE":90.582,"ARG_OF_PERICENTER":268.4417,"MEAN_ANOMALY":91.6275,"EPHEMERIS_TYPE":0,"CLASSIFICATION_TYPE":"U","NORAD_CAT_ID":57331,"ELEMENT_SET_NO":999,"REV_AT_EPOCH":13057,"BSTAR":0.00011386571,"MEAN_MOTION_DOT":1.335e-5,"MEAN_MOTION_DDOT":0},{"OBJECT_NAME":"STARLINK-5831","OBJECT_ID":"2023-099E","EPOCH":"2025-11-26T15:34:06.791808","MEAN_MOTION":15.02536008,"ECCENTRICITY":0.00013581,"INCLINATION":43.0038,"RA_OF_ASC_NODE":89.118,"ARG_OF_PERICENTER":261.6489,"MEAN_ANOMALY":98.4199,"EPHEMERIS_TYPE":0,"CLASSIFICATION_TYPE":"U","NORAD_CAT_ID":57332,"ELEMENT_SET_NO":999,"REV_AT_EPOCH":13061,"BSTAR":-1.1242385e-5,"MEAN_MOTION_DOT":-3.56e-6,"MEAN_MOTION_DDOT":0},{"OBJECT_NAME":"STARLINK-5585","OBJECT_ID":"2023-099F","EPOCH":"2025-11-26T15:32:30.475680","MEAN_MOTION":15.02539668,"ECCENTRICITY":0.00011634,"INCLINATION":43.0039,"RA_OF_ASC_NODE":89.111,"ARG_OF_PERICENTER":270.8673,"MEAN_ANOMALY":89.2036,"EPHEMERIS_TYPE":0,"CLASSIFICATION_TYPE":"U","NORAD_CAT_ID":57333,"ELEMENT_SET_NO":999,"REV_AT_EPOCH":13061,"BSTAR":3.9460496e-5,"MEAN_MOTION_DOT":3.3e-6,"MEAN_MOTION_DDOT":0}]
