STARLINK-30236          
1 57300U 23096L   25331.29182173 -.00000392  00000+0 -13945-4 0  9993
2 57300  43.0030  59.5978 0001276 269.5727  90.4969 15.02531045132250
STARLINK-30201          
1 57301U 23096M   25331.28849156  .00000660  00000+0  63942-4 0  9992
2 57301  43.0032  59.5780 0001256 279.7171  80.3530 15.02533673131315
STARLINK-30233          
1 57302U 23096N   25331.28516230 -.00001584  00000+0 -10228-3 0  9993
2 57302  43.0041  59.5316 0001982 274.3519  85.7097 15.02516047131317
STARLINK-30232          
1 57303U 23096P   25331.33336806  .00118418  00000+0  30081-2 0  9990
2 57303  42.9936  29.5804 0027943  38.4863 189.6106 15.38113413  5880
STARLINK-30177          
1 57305U 23096R   25331.33336806  .00133041  00000+0  31238-2 0  9996
2 57305  42.9916  28.1132 0028499  40.6720  75.2402 15.40416007  5936
STARLINK-30200          
1 57306U 23096S   25331.33336806  .00138091  00000+0  31768-2 0  9995
2 57306  42.9862  24.0049 0027890  45.7196 344.8643 15.41025503  5789
STARLINK-30209          
1 57307U 23096T   25331.22094387  .00022604  00000+0  60298-3 0  9992
2 57307  42.9872  29.2249 0028144  35.9313 324.3428 15.37313780131668
STARLINK-30163          
1 57309U 23096V   25331.25002315  .00305873  00000+0  11990-2 0  9993
2 57309  42.9811 353.3057 0027657  84.9429 244.1528 15.84774495  5993
STARLINK-30184          
1 57310U 23096W   25331.20922693 -.00003628  00000+0 -25354-3 0  9995
2 57310  43.0045  33.9815 0000634 300.3794  59.6986 15.02553098131604
STARLINK-30175          
1 57311U 23096X   25331.25002315  .00131930  00000+0  32782-2 0  9999
2 57311  42.9868  29.5461 0028779  35.6390 288.2767 15.38701298  5865
STARLINK-6290           
1 57328U 23099A   25330.38944011 -.00000789  00000+0 -43330-4 0  9993
2 57328  43.0028  90.6159 0001412 268.6025  91.4656 15.02546069131487
STARLINK-6138           
1 57329U 23099B   25330.64536703  .00000466  00000+0  49565-4 0  9994
2 57329  43.0032  89.0900 0001257 276.1360  83.9339 15.02540245130610
STARLINK-6212           
1 57330U 23099C   25330.38610666  .00001072  00000+0  94428-4 0  9990
2 57330  43.0033  90.5912 0001418 271.5816  88.4864 15.02537628130576
STARLINK-6234           
1 57331U 23099D   25330.38499765  .00001335  00000+0  11387-3 0  9990
2 57331  43.0037  90.5820 0001315 268.4417  91.6275 15.02533619130575
STARLINK-5831           
1 57332U 23099E   25330.64868972 -.00000356  00000+0 -11242-4 0  9995
2 57332  43.0038  89.1180 0001358 261.6489  98.4199 15.02536008130611
STARLINK-5585           
1 57333U 23099F   25330.64757495  .00000330  00000+0  39460-4 0  9995
2 57333  43.0039  89.1110 0001163 270.8673  89.2036 15.02539668130610
